CCSDS_OMM_VERS,COMMENT,CREATION_DATE,ORIGINATOR,OBJECT_NAME,OBJECT_ID,CENTER_NAME,REF_FRAME,TIME_SYSTEM,MEAN_ELEMENT_THEORY,EPOCH,MEAN_MOTION,ECCENTRICITY,INCLINATION,RA_OF_ASC_NODE,ARG_OF_PERICENTER,MEAN_ANOMALY,EPHEMERIS_TYPE,CLASSIFICATION_TYPE,NORAD_CAT_ID,ELEMENT_SET_NO,REV_AT_EPOCH,BSTAR,MEAN_MOTION_DOT,MEAN_MOTION_DDOT,SEMIMAJOR_AXIS,PERIOD,APOAPSIS,PERIAPSIS,OBJECT_TYPE,RCS_SIZE,COUNTRY_CODE,LAUNCH_DATE,SITE,DECAY_DATE,FILE,GP_ID,TLE_LINE0,TLE_LINE1,TLE_LINE2
3.0,GENERATED VIA SPACE-TRACK.ORG API,2022-02-22T18:30:17,18 SPCS,COSMOS 1408 DEB,1982-092AMJ,EARTH,TEME,UTC,SGP4,2022-02-22T09:10:02.056800,16.0331057,0.002174,82.5694,22.5778,155.1468,205.0865,0,U,50638,999,1359,0.014282,0.06000642,0.099552,6643.395,89.814,279.703,250.817,DEBRIS,SMALL,CIS,1982-09-16,PKMTR,2022-02-27,3313833,196642300,0 COSMOS 1408 DEB,1 50638U 82092AMJ 22053.38196825  .06000642  99552-1  14282-1 0  9994,2 50638  82.5694  22.5778 0021740 155.1468 205.0865 16.03310570 13593
3.0,GENERATED VIA SPACE-TRACK.ORG API,2005-04-29T09:12:45,18 SPCS,ARIANE 1 DEB,1986-019JM,EARTH,TEME,UTC,SGP4,1990-12-21T01:54:15.213600,15.97158641,0.0013179,98.8708,185.3415,266.7961,94.6499,0,U,17557,999,21750,0.016513,0.07222056,1.1e-06,6660.447,90.16,291.09,273.534,DEBRIS,SMALL,FR,1986-02-22,FRGUI,1990-12-22,131174,44899207,0 ARIANE 1 DEB,1 17557U 86019 JM 90355.07934275  .07222056 +11000-5 +16513-1 0  9996,2 17557 098.8708 185.3415 0013179 266.7961 094.6499 15.97158641217505
3.0,GENERATED VIA SPACE-TRACK.ORG API,2004-08-15T23:35:23,18 SPCS,SL-3 R/B,1960-005B,EARTH,TEME,UTC,SGP4,1960-07-16T04:00:11.150208,16.27523673,0.0,64.8899,44.6976,36.3819,323.618,0,U,35,999,990,0.0,0.03271057,0.0,6577.344,88.477,199.209,199.209,ROCKET BODY,,,,,1960-07-17,33906,8671988,0 SL-3 R/B,1 00035U 60005  B 60198.16679572  .03271057 +00000-0 +00000-0 0  9991,2 00035 064.8899 044.6976 0000000 036.3819 323.6180 16.27523673009903
3.0,GENERATED VIA SPACE-TRACK.ORG API,2004-08-15T23:39:38,18 SPCS,SL-4 DEB,1975-113C,EARTH,TEME,UTC,SGP4,1975-12-04T03:36:35.356607,16.25027939,0.0012912,81.32,245.0877,54.6585,305.6251,0,U,8465,999,12,0.0,0.06928788,0.0,6584.076,88.613,214.443,197.44,DEBRIS,,,,,1975-12-04,33991,9537729,0 SL-4 DEB,1 08465U 75113  C 75338.15040922  .06928788 +00000-0 +00000-0 0  9997,2 08465 081.3200 245.0877 0012912 054.6585 305.6251 16.25027939000129
3.0,GENERATED VIA SPACE-TRACK.ORG API,2005-05-02T23:37:16,18 SPCS,SOLWIND DEB,1979-017LB,EARTH,TEME,UTC,SGP4,1988-01-24T10:45:25.261919,16.00454072,0.0008495,97.6876,2.5879,105.8821,254.131,0,U,18303,999,9134,0.0018672,0.009754,8e-07,6651.301,89.974,278.816,267.516,DEBRIS,SMALL,US,1979-02-24,AFWTR,1988-01-30,130984,43217641,0 SOLWIND DEB,1 18303U 79017 LB 88024.44820905  .00975400 +80000-6 +18672-2 0  9998,2 18303 097.6876 002.5879 0008495 105.8821 254.1310 16.00454072091344
3.0,GENERATED VIA SPACE-TRACK.ORG API,2005-04-29T09:15:42,18 SPCS,PROGRESS-M 12,1992-022A,EARTH,TEME,UTC,SGP4,1992-06-27T19:40:31.175327,15.56006675,0.0016315,51.5965,193.5234,218.4746,141.4579,0,U,21946,999,1077,0.00013218,8.971e-05,0.0,6777.369,92.544,410.291,388.176,PAYLOAD,LARGE,CIS,1992-04-19,TTMTR,1992-06-27,131233,46889672,0 PROGRESS-M 12,1 21946U 92022  A 92179.81980527  .00008971 +00000-0 +13218-3 0  9998,2 21946 051.5965 193.5234 0016315 218.4746 141.4579 15.56006675010777
3.0,GENERATED VIA SPACE-TRACK.ORG API,2015-01-17T18:27:29,18 SPCS,DRAGON CRS-5 DEB,2015-001D,EARTH,TEME,UTC,SGP4,2015-01-17T17:02:51.969408,16.43301762,0.0024265,51.6388,112.2214,76.6009,283.8201,0,U,40373,999,117,0.00037312,0.15038765,1.2584e-05,6535.171,87.628,172.893,141.178,DEBRIS,,US,2015-01-10,AFETR,2015-01-18,1812022,98106978,0 DRAGON CRS-5 DEB,1 40373U 15001D   15017.71032372  .15038765  12584-4  37312-3 0  9991,2 40373 051.6388 112.2214 0024265 076.6009 283.8201 16.43301762  1176
3.0,GENERATED VIA SPACE-TRACK.ORG API,2004-08-16T23:23:02,18 SPCS,SOLWIND DEB,1979-017AW,EARTH,TEME,UTC,SGP4,1985-12-04T18:20:08.488895,15.28613495,0.0041403,97.887,266.8793,210.9183,150.9421,0,U,16148,999,37644,0.031448,0.00897299,0.0,6858.097,94.203,508.357,451.567,DEBRIS,SMALL,US,1979-02-24,AFWTR,1985-12-20,34487,14481983,0 SOLWIND DEB,1 16148U 79017 AW 85338.76398714  .00897299 +00000-0 +31448-1 0  9991,2 16148 097.8870 266.8793 0041403 210.9183 150.9421 15.28613495376448
3.0,GENERATED VIA SPACE-TRACK.ORG API,2013-09-16T11:22:36,18 SPCS,PSLV DEB,2001-049L,EARTH,TEME,UTC,SGP4,2013-09-15T22:43:47.632511,16.48636592,0.0021342,97.7304,166.488,167.8369,193.1157,0,U,27068,999,65017,0.00020206,0.17642961,2.5855e-06,6521.069,87.344,156.851,129.017,DEBRIS,SMALL,IND,2001-10-22,SRI,2013-09-16,1548047,93847650,0 PSLV DEB,1 27068U 01049L   13258.94707908  .17642961  25855-5  20206-3 0  9999,2 27068 097.7304 166.4880 0021342 167.8369 193.1157 16.48636592650176
3.0,GENERATED VIA SPACE-TRACK.ORG API,2023-09-12T11:36:15,18 SPCS,CZ-2D DEB,2022-120B,EARTH,TEME,UTC,SGP4,2023-09-12T05:05:09.393792,16.3015115,0.0008953,34.9795,65.8592,326.9068,211.546,0,U,53944,999,5425,0.0017498,0.08719779,1.4287e-06,6570.271,88.335,198.018,186.253,DEBRIS,LARGE,PRC,2022-09-26,XSC,2023-09-12,4004141,236966508,0 CZ-2D DEB,1 53944U 22120B   23255.21191428  .08719779  14287-5  17498-2 0  9993,2 53944  34.9795  65.8592 0008953 326.9068 211.5460 16.30151150 54256
3.0,GENERATED VIA SPACE-TRACK.ORG API,2004-08-16T23:21:32,18 SPCS,SALYUT 7 DEB,1982-033EC,EARTH,TEME,UTC,SGP4,1985-02-10T17:22:22.310111,16.33475333,0.0009169,51.6176,219.382,227.7637,132.6551,0,U,15316,999,16260,0.0010626,0.07138135,5.4651e-05,6561.357,88.155,189.239,177.206,DEBRIS,,,,,1985-02-11,34457,14424217,0 SALYUT 7 DEB,1 15316U 82033 EC 85041.72386933  .07138135 +54651-4 +10626-2 0  9991,2 15316 051.6176 219.3820 0009169 227.7637 132.6551 16.33475333162604
3.0,GENERATED VIA SPACE-TRACK.ORG API,2004-08-17T14:49:45,18 SPCS,SL-4 R/B,1992-077B,EARTH,TEME,UTC,SGP4,1992-11-23T21:53:59.449631,16.3815694,0.0055207,67.1256,267.7498,90.0062,270.9307,0,U,22227,999,53,0.00028246,0.11534539,2.982e-05,6548.851,87.903,206.87,134.561,ROCKET BODY,,,,,1992-11-24,34844,18900909,0 SL-4 R/B,1 22227U 92077  B 92328.91249363  .11534539 +29820-4 +28246-3 0  9992,2 22227 067.1256 267.7498 0055207 090.0062 270.9307 16.38156940000532
3.0,GENERATED VIA SPACE-TRACK.ORG API,2005-04-25T10:07:34,18 SPCS,EXPLORER 23 DEB,1964-074B,EARTH,TEME,UTC,SGP4,1973-06-05T21:12:59.899104,15.97011609,0.0013502,51.6887,336.9504,328.3877,31.6278,0,U,3747,999,24631,0.0,0.01011068,0.00057758,6660.856,90.168,291.714,273.727,DEBRIS,,,,,1973-06-13,129569,41935738,0 EXPLORER 23 DEB,1 03747U 64074  B 73156.88402661  .01011068 +57758-3 +00000-0 0  9991,2 03747 051.6887 336.9504 0013502 328.3877 031.6278 15.97011609246319
3.0,GENERATED VIA SPACE-TRACK.ORG API,2024-09-01T17:41:24,18 SPCS,CZ-4 DEB,1999-057KV,EARTH,TEME,UTC,SGP4,2024-09-01T06:13:30.548640,16.19289451,0.0017799,98.1441,357.4916,306.7347,53.2304,0,U,26448,999,29649,0.0081517,0.14980156,2.9114e-06,6599.619,88.928,233.23,209.737,DEBRIS,SMALL,PRC,1999-10-14,TSC,2024-09-02,4466668,266818433,0 CZ-4 DEB,1 26448U 99057KV  24245.25938135  .14980156  29114-5  81517-2 0  9997,2 26448  98.1441 357.4916 0017799 306.7347  53.2304 16.19289451296494
3.0,GENERATED VIA SPACE-TRACK.ORG API,2004-08-16T23:15:23,18 SPCS,TITAN 3C R/B(1),1981-025B,EARTH,TEME,UTC,SGP4,1981-03-18T04:59:38.584608,16.5061394,0.0070339,28.6023,277.8481,133.6937,226.9548,0,U,12340,999,22,0.00016466,0.52082136,-4.1172e-05,6515.86,87.24,183.557,91.893,ROCKET BODY,,,,,1981-03-18,34334,12253733,0 TITAN 3C R/B(1),1 12340U 81025  B 81077.20808547  .52082136 -41172-4 +16466-3 0  9996,2 12340 028.6023 277.8481 0070339 133.6937 226.9548 16.50613940000229
3.0,GENERATED VIA SPACE-TRACK.ORG API,2023-12-30T07:16:17,18 SPCS,STARLINK-3787,2022-041S,EARTH,TEME,UTC,SGP4,2023-12-30T06:02:15.974592,16.35936547,0.0007633,53.1807,54.5401,37.6503,81.3389,0,U,52277,999,9542,0.005309,0.45960133,1.2333e-05,6554.771,88.023,181.639,171.633,PAYLOAD,LARGE,US,2022-04-21,AFETR,2023-12-30,4149054,245878321,0 STARLINK-3787,1 52277U 22041S   23364.25157378  .45960133  12333-4  53090-2 0  9994,2 52277  53.1807  54.5401 0007633  37.6503  81.3389 16.35936547 95422
3.0,GENERATED VIA SPACE-TRACK.ORG API,2004-08-15T23:39:35,18 SPCS,SALYUT 4 DEB,1974-104L,EARTH,TEME,UTC,SGP4,1975-05-02T17:35:34.601568,16.17321664,0.0009673,51.5574,220.1373,328.4255,31.6137,0,U,7658,999,2024,0.00070643,0.01306314,0.0,6604.975,89.036,233.229,220.451,DEBRIS,,,,,1975-05-07,33990,9516008,0 SALYUT 4 DEB,1 07658U 74104  L 75122.73303937  .01306314 +00000-0 +70643-3 0  9995,2 07658 051.5574 220.1373 0009673 328.4255 031.6137 16.17321664020243
3.0,GENERATED VIA SPACE-TRACK.ORG API,2004-08-17T16:15:06,18 SPCS,SL-12 DEB,1988-085AJ,EARTH,TEME,UTC,SGP4,2003-09-21T05:34:03.897119,4.37996001,0.5684549,65.6532,222.2895,82.0973,335.6089,0,U,27988,999,224,0.7762,0.00648447,0.0,15779.334,328.77,18371.039,431.359,DEBRIS,SMALL,CIS,1988-09-16,TTMTR,2003-10-16,36551,38539457,0 SL-12 DEB,1 27988U 88085AJ  03264.23198955  .00648447  00000-0  77620+0 0  9994,2 27988 065.6532 222.2895 5684549 082.0973 335.6089 04.37996001  2244
3.0,GENERATED VIA SPACE-TRACK.ORG API,2004-08-16T23:18:11,18 SPCS,SALYUT 7 DEB,1982-033BU,EARTH,TEME,UTC,SGP4,1984-10-12T23:52:47.084160,16.39507401,0.0008671,51.5766,114.289,306.3148,63.0476,0,U,15127,999,14348,0.00092207,0.12171277,5.575e-05,6545.254,87.831,172.794,161.444,DEBRIS,MEDIUM,CIS,1982-04-19,TTMTR,1984-10-13,34390,13972121,0 SALYUT 7 DEB,1 15127U 82033 BU 84286.99498940  .12171277 +55750-4 +92207-3 0  9999,2 15127 051.5766 114.2890 0008671 306.3148 063.0476 16.39507401143482
